ONEWEB-0209             
1 48215U 21031F   25244.22319651  .00000025  00000+0  31864-4 0  9995
2 48215  87.9091 347.2439 0001841 104.9955 255.1379 13.14502475210417
ONEWEB-0198             
1 48216U 21031G   25244.28345930  .00000280  00000+0  72019-3 0  9990
2 48216  87.9089 347.2319 0001473 111.0843 249.0444 13.14503168210536
ONEWEB-0189             
1 48217U 21031H   25244.29614264  .00000096  00000+0  22580-3 0  9994
2 48217  87.9088 347.2027 0001509 109.1272 251.0021 13.14503886210278
ONEWEB-0196             
1 48218U 21031J   25244.27394456  .00000239  00000+0  61141-3 0  9996
2 48218  87.9095 347.2217 0001726 103.8520 256.2802 13.14503111210271
ONEWEB-0183             
1 48219U 21031K   25244.24856084 -.00000125  00000+0 -37203-3 0  9992
2 48219  87.9085 347.2371 0002038 101.8145 258.3213 13.14502396210363
ONEWEB-0185             
1 48220U 21031L   25244.27472771  .00000258  00000+0  66205-3 0  9993
2 48220  87.9095 347.1982 0002085 110.0453 250.0901 13.14503762210292
ONEWEB-0187             
1 48221U 21031M   25244.25477521 -.00000022  00000+0 -94677-4 0  9996
2 48221  87.9091 347.2482 0001869 109.7888 250.3444 13.14503080210301
ONEWEB-0192             
1 48222U 21031N   25244.22477947 -.00000010  00000+0 -60968-4 0  9999
2 48222  87.9089 347.2478 0001740 100.4479 259.6847 13.14503339210212
ONEWEB-0219             
1 48223U 21031P   25244.28028339  .00000209  00000+0  52799-3 0  9993
2 48223  87.9093 347.2095 0001912 108.2182 251.9156 13.14502128210427
ONEWEB-0202             
1 48224U 21031Q   25244.26125050  .00000066  00000+0  14491-3 0  9998
2 48224  87.9091 347.2274 0001158 115.6045 244.5204 13.14503212210402
ONEWEB-0204             
1 48225U 21031R   25244.29534791  .00000100  00000+0  23423-3 0  9992
2 48225  87.9080 347.2115 0002106  99.2897 260.8471 13.14502705210303
ONEWEB-0205             
1 48226U 21031S   25244.27076724  .00000185  00000+0  46502-3 0  9994
2 48226  87.9085 347.2066 0001845 106.2029 253.9304 13.14502604210316
ONEWEB-0206             
1 48227U 21031T   25244.24380919 -.00000125  00000+0 -37277-3 0  9991
2 48227  87.9094 347.1936 0001900 102.2481 257.8862 13.14502860210262
ONEWEB-0182             
1 48228U 21031U   25244.23904628 -.00002671  00000+0 -72393-2 0  9995
2 48228  87.9088 347.2375 0001930 106.0716 254.0626 13.14513960210473
ONEWEB-0186             
1 48229U 21031V   25244.25015640 -.00000098  00000+0 -29764-3 0  9991
2 48229  87.9095 347.1983 0001822 103.5645 256.5688 13.14503112210427
ONEWEB-0181             
1 48230U 21031W   25244.22794070 -.00000053  00000+0 -17649-3 0  9991
2 48230  87.9086 347.2746 0001692 104.5686 255.5631 13.14501946210271
