[{"OBJECT_NAME":"ONEWEB-0209","OBJECT_ID":"2021-031F","EPOCH":"2025-09-01T05:21:24.178464","MEAN_MOTION":13.14502475,"ECCENTRICITY":0.00018419,"INCLINATION":87.9091,"RA_OF_ASC_NODE":347.2439,"ARG_OF_PERICENTER":104.9955,"MEAN_ANOMALY":255.1379,"EPHEMERIS_TYPE":0,"CLASSIFICATION_TYPE":"U","NORAD_CAT_ID":48215,"ELEMENT_SET_NO":999,"REV_AT_EPOCH":21041,"BSTAR":3.1864288e-5,"MEAN_MOTION_DOT":2.5e-7,"MEAN_MOTION_DDOT":0},{"OBJECT_NAME":"ONEWEB-0198","OBJECT_ID":"2021-031G","EPOCH":"2025-09-01T06:48:10.883520","MEAN_MOTION":13.14503168,"ECCENTRICITY":0.00014737,"INCLINATION":87.9089,"RA_OF_ASC_NODE":347.2319,"ARG_OF_PERICENTER":111.0843,"MEAN_ANOMALY":249.0444,"EPHEMERIS_TYPE":0,"CLASSIFICATION_TYPE":"U","NORAD_CAT_ID":48216,"ELEMENT_SET_NO":999,"REV_AT_EPOCH":21053,"BSTAR":0.00072019353,"MEAN_MOTION_DOT":2.8e-6,"MEAN_MOTION_DDOT":0},{"OBJECT_NAME":"ONEWEB-0189","OBJECT_ID":"2021-031H","EPOCH":"2025-09-01T07:06:26.724096","MEAN_MOTION":13.14503886,"ECCENTRICITY":0.00015098,"INCLINATION":87.9088,"RA_OF_ASC_NODE":347.2027,"ARG_OF_PERICENTER":109.1272,"MEAN_ANOMALY":251.0021,"EPHEMERIS_TYPE":0,"CLASSIFICATION_TYPE":"U","NORAD_CAT_ID":48217,"ELEMENT_SET_NO":999,"REV_AT_EPOCH":21027,"BSTAR":0.00022579746,"MEAN_MOTION_DOT":9.6e-7,"MEAN_MOTION_DDOT":0},{"OBJECT_NAME":"ONEWEB-0196","OBJECT_ID":"2021-031J","EPOCH":"2025-09-01T06:34:28.809984","MEAN_MOTION":13.14503111,"ECCENTRICITY":0.00017264,"INCLINATION":87.9095,"RA_OF_ASC_NODE":347.2217,"ARG_OF_PERICENTER":103.852,"MEAN_ANOMALY":256.2802,"EPHEMERIS_TYPE":0,"CLASSIFICATION_TYPE":"U","NORAD_CAT_ID":48218,"ELEMENT_SET_NO":999,"REV_AT_EPOCH":21027,"BSTAR":0.00061141162,"MEAN_MOTION_DOT":2.39e-6,"MEAN_MOTION_DDOT":0},{"OBJECT_NAME":"ONEWEB-0183","OBJECT_ID":"2021-031K","EPOCH":"2025-09-01T05:57:55.656576","MEAN_MOTION":13.14502396,"ECCENTRICITY":0.00020387,"INCLINATION":87.9085,"RA_OF_ASC_NODE":347.2371,"ARG_OF_PERICENTER":101.8145,"MEAN_ANOMALY":258.3213,"EPHEMERIS_TYPE":0,"CLASSIFICATION_TYPE":"U","NORAD_CAT_ID":48219,"ELEMENT_SET_NO":999,"REV_AT_EPOCH":21036,"BSTAR":-0.00037203263,"MEAN_MOTION_DOT":-1.25e-6,"MEAN_MOTION_DDOT":0},{"OBJECT_NAME":"ONEWEB-0185","OBJECT_ID":"2021-031L","EPOCH":"2025-09-01T06:35:36.474144","MEAN_MOTION":13.14503762,"ECCENTRICITY":0.00020859,"INCLINATION":87.9095,"RA_OF_ASC_NODE":347.1982,"ARG_OF_PERICENTER":110.0453,"MEAN_ANOMALY":250.0901,"EPHEMERIS_TYPE":0,"CLASSIFICATION_TYPE":"U","NORAD_CAT_ID":48220,"ELEMENT_SET_NO":999,"REV_AT_EPOCH":21029,"BSTAR":0.00066204505,"MEAN_MOTION_DOT":2.58e-6,"MEAN_MOTION_DDOT":0},{"OBJECT_NAME":"ONEWEB-0187","OBJECT_ID":"2021-031M","EPOCH":"2025-09-01T06:06:52.578144","MEAN_MOTION":13.1450308,"ECCENTRICITY":0.00018693,"INCLINATION":87.9091,"RA_OF_ASC_NODE":347.2482,"ARG_OF_PERICENTER":109.7888,"MEAN_ANOMALY":250.3444,"EPHEMERIS_TYPE":0,"CLASSIFICATION_TYPE":"U","NORAD_CAT_ID":48221,"ELEMENT_SET_NO":999,"REV_AT_EPOCH":21030,"BSTAR":-9.4676544e-5,"MEAN_MOTION_DOT":-2.2e-7,"MEAN_MOTION_DDOT":0},{"OBJECT_NAME":"ONEWEB-0192","OBJECT_ID":"2021-031N","EPOCH":"2025-09-01T05:23:40.946208","MEAN_MOTION":13.14503339,"ECCENTRICITY":0.00017409,"INCLINATION":87.9089,"RA_OF_ASC_NODE":347.2478,"ARG_OF_PERICENTER":100.4479,"MEAN_ANOMALY":259.6847,"EPHEMERIS_TYPE":0,"CLASSIFICATION_TYPE":"U","NORAD_CAT_ID":48222,"ELEMENT_SET_NO":999,"REV_AT_EPOCH":21021,"BSTAR":-6.0968196e-5,"MEAN_MOTION_DOT":-1.0e-7,"MEAN_MOTION_DDOT":0},{"OBJECT_NAME":"ONEWEB-0219","OBJECT_ID":"2021-031P","EPOCH":"2025-09-01T06:43:36.484896","MEAN_MOTION":13.14502128,"ECCENTRICITY":0.00019124,"INCLINATION":87.9093,"RA_OF_ASC_NODE":347.2095,"ARG_OF_PERICENTER":108.2182,"MEAN_ANOMALY":251.9156,"EPHEMERIS_TYPE":0,"CLASSIFICATION_TYPE":"U","NORAD_CAT_ID":48223,"ELEMENT_SET_NO":999,"REV_AT_EPOCH":21042,"BSTAR":0.00052798533,"MEAN_MOTION_DOT":2.09e-6,"MEAN_MOTION_DDOT":0},{"OBJECT_NAME":"ONEWEB-0202","OBJECT_ID":"2021-031Q","EPOCH":"2025-09-01T06:16:12.043200","MEAN_MOTION":13.14503212,"ECCENTRICITY":0.00011584,"INCLINATION":87.9091,"RA_OF_ASC_NODE":347.2274,"ARG_OF_PERICENTER":115.6045,"MEAN_ANOMALY":244.5204,"EPHEMERIS_TYPE":0,"CLASSIFICATION_TYPE":"U","NORAD_CAT_ID":48224,"ELEMENT_SET_NO":999,"REV_AT_EPOCH":21040,"BSTAR":0.00014490696,"MEAN_MOTION_DOT":6.6e-7,"MEAN_MOTION_DDOT":0},{"OBJECT_NAME":"ONEWEB-0204","OBJECT_ID":"2021-031R","EPOCH":"2025-09-01T07:05:18.059424","MEAN_MOTION":13.14502705,"ECCENTRICITY":0.00021061,"INCLINATION":87.908,"RA_OF_ASC_NODE":347.2115,"ARG_OF_PERICENTER":99.2897,"MEAN_ANOMALY":260.8471,"EPHEMERIS_TYPE":0,"CLASSIFICATION_TYPE":"U","NORAD_CAT_ID":48225,"ELEMENT_SET_NO":999,"REV_AT_EPOCH":21030,"BSTAR":0.00023423134,"MEAN_MOTION_DOT":1.0e-6,"MEAN_MOTION_DDOT":0},{"OBJECT_NAME":"ONEWEB-0205","OBJECT_ID":"2021-031S","EPOCH":"2025-09-01T06:29:54.289536","MEAN_MOTION":13.14502604,"ECCENTRICITY":0.00018459,"INCLINATION":87.9085,"RA_OF_ASC_NODE":347.2066,"ARG_OF_PERICENTER":106.2029,"MEAN_ANOMALY":253.9304,"EPHEMERIS_TYPE":0,"CLASSIFICATION_TYPE":"U","NORAD_CAT_ID":48226,"ELEMENT_SET_NO":999,"REV_AT_EPOCH":21031,"BSTAR":0.00046501607,"MEAN_MOTION_DOT":1.85e-6,"MEAN_MOTION_DDOT":0},{"OBJECT_NAME":"ONEWEB-0206","OBJECT_ID":"2021-031T","EPOCH":"2025-09-01T05:51:05.114016","MEAN_MOTION":13.1450286,"ECCENTRICITY":0.00019001,"INCLINATION":87.9094,"RA_OF_ASC_NODE":347.1936,"ARG_OF_PERICENTER":102.2481,"MEAN_ANOMALY":257.8862,"EPHEMERIS_TYPE":0,"CLASSIFICATION_TYPE":"U","NORAD_CAT_ID":48227,"ELEMENT_SET_NO":999,"REV_AT_EPOCH":21026,"BSTAR":-0.00037277069,"MEAN_MOTION_DOT":-1.25e-6,"MEAN_MOTION_DDOT":0},{"OBJECT_NAME":"ONEWEB-0182","OBJECT_ID":"2021-031U","EPOCH":"2025-09-01T05:44:13.598592","MEAN_MOTION":13.1451396,"ECCENTRICITY":0.00019305,"INCLINATION":87.9088,"RA_OF_ASC_NODE":347.2375,"ARG_OF_PERICENTER":106.0716,"MEAN_ANOMALY":254.0626,"EPHEMERIS_TYPE":0,"CLASSIFICATION_TYPE":"U","NORAD_CAT_ID":48228,"ELEMENT_SET_NO":999,"REV_AT_EPOCH":21047,"BSTAR":-0.0072393236,"MEAN_MOTION_DOT":-2.671e-5,"MEAN_MOTION_DDOT":0},{"OBJECT_NAME":"ONEWEB-0186","OBJECT_ID":"2021-031V","EPOCH":"2025-09-01T06:00:13.512960","MEAN_MOTION":13.14503112,"ECCENTRICITY":0.00018229,"INCLINATION":87.9095,"RA_OF_ASC_NODE":347.1983,"ARG_OF_PERICENTER":103.5645,"MEAN_ANOMALY":256.5688,"EPHEMERIS_TYPE":0,"CLASSIFICATION_TYPE":"U","NORAD_CAT_ID":48229,"ELEMENT_SET_NO":999,"REV_AT_EPOCH":21042,"BSTAR":-0.00029764487,"MEAN_MOTION_DOT":-9.8e-7,"MEAN_MOTION_DDOT":0},{"OBJECT_NAME":"ONEWEB-0181","OBJECT_ID":"2021-031W","EPOCH":"2025-09-01T05:28:14.076480","MEAN_MOTION":13.14501946,"ECCENTRICITY":0.00016923,"INCLINATION":87.9086,"RA_OF_ASC_NODE":347.2746,"ARG_OF_PERICENTER":104.5686,"MEAN_ANOMALY":255.5631,"EPHEMERIS_TYPE":0,"CLASSIFICATION_TYPE":"U","NORAD_CAT_ID":48230,"ELEMENT_SET_NO":999,"REV_AT_EPOCH":21027,"BSTAR":-0.00017648785,"MEAN_MOTION_DOT":-5.3e-7,"MEAN_MOTION_DDOT":0}]
